[{"OBJECT_NAME":"GLOBALSTAR M045","OBJECT_ID":"1999-019A","EPOCH":"2026-04-05T12:31:32.577312","MEAN_MOTION":12.27073398,"ECCENTRICITY":5.736e-5,"INCLINATION":51.9965,"RA_OF_ASC_NODE":192.042,"ARG_OF_PERICENTER":138.264,"MEAN_ANOMALY":236.5535,"EPHEMERIS_TYPE":0,"CLASSIFICATION_TYPE":"U","NORAD_CAT_ID":25676,"ELEMENT_SET_NO":999,"REV_AT_EPOCH":22928,"BSTAR":-0.00043698312,"MEAN_MOTION_DOT":-1.43e-6,"MEAN_MOTION_DDOT":0},{"OBJECT_NAME":"GLOBALSTAR M019","OBJECT_ID":"1999-019B","EPOCH":"2026-04-05T19:58:53.815584","MEAN_MOTION":12.13882894,"ECCENTRICITY":0.0001287,"INCLINATION":51.9908,"RA_OF_ASC_NODE":342.1205,"ARG_OF_PERICENTER":153.15,"MEAN_ANOMALY":284.407,"EPHEMERIS_TYPE":0,"CLASSIFICATION_TYPE":"U","NORAD_CAT_ID":25677,"ELEMENT_SET_NO":999,"REV_AT_EPOCH":22068,"BSTAR":0.00078434,"MEAN_MOTION_DOT":-1.5e-7,"MEAN_MOTION_DDOT":0},{"OBJECT_NAME":"GLOBALSTAR M044","OBJECT_ID":"1999-019C","EPOCH":"2026-04-05T13:51:54.943200","MEAN_MOTION":11.90264852,"ECCENTRICITY":0.0005509,"INCLINATION":51.9995,"RA_OF_ASC_NODE":330.7665,"ARG_OF_PERICENTER":240.8565,"MEAN_ANOMALY":125.7012,"EPHEMERIS_TYPE":0,"CLASSIFICATION_TYPE":"U","NORAD_CAT_ID":25678,"ELEMENT_SET_NO":999,"REV_AT_EPOCH":20614,"BSTAR":0.0007584,"MEAN_MOTION_DOT":-2.9e-7,"MEAN_MOTION_DDOT":0},{"OBJECT_NAME":"GLOBALSTAR M042","OBJECT_ID":"1999-019D","EPOCH":"2026-04-05T21:02:26.384928","MEAN_MOTION":12.22095644,"ECCENTRICITY":0.0002885,"INCLINATION":52.0022,"RA_OF_ASC_NODE":304.6743,"ARG_OF_PERICENTER":166.617,"MEAN_ANOMALY":295.1454,"EPHEMERIS_TYPE":0,"CLASSIFICATION_TYPE":"U","NORAD_CAT_ID":25679,"ELEMENT_SET_NO":999,"REV_AT_EPOCH":22104,"BSTAR":0.00031076,"MEAN_MOTION_DOT":-5.9e-7,"MEAN_MOTION_DDOT":0},{"OBJECT_NAME":"GLOBALSTAR M025","OBJECT_ID":"1999-031A","EPOCH":"2026-04-05T12:56:20.654016","MEAN_MOTION":11.225607,"ECCENTRICITY":0.00019291,"INCLINATION":51.9805,"RA_OF_ASC_NODE":202.0132,"ARG_OF_PERICENTER":247.704,"MEAN_ANOMALY":125.1045,"EPHEMERIS_TYPE":0,"CLASSIFICATION_TYPE":"U","NORAD_CAT_ID":25770,"ELEMENT_SET_NO":999,"REV_AT_EPOCH":51454,"BSTAR":-6.9255559e-5,"MEAN_MOTION_DOT":-7.0e-7,"MEAN_MOTION_DDOT":0},{"OBJECT_NAME":"GLOBALSTAR M049","OBJECT_ID":"1999-031B","EPOCH":"2026-04-05T17:35:20.007744","MEAN_MOTION":11.1212384,"ECCENTRICITY":0.000333,"INCLINATION":51.9863,"RA_OF_ASC_NODE":251.0277,"ARG_OF_PERICENTER":142.8418,"MEAN_ANOMALY":217.2609,"EPHEMERIS_TYPE":0,"CLASSIFICATION_TYPE":"U","NORAD_CAT_ID":25771,"ELEMENT_SET_NO":999,"REV_AT_EPOCH":14997,"BSTAR":-0.0013643,"MEAN_MOTION_DOT":-1.05e-6,"MEAN_MOTION_DDOT":0},{"OBJECT_NAME":"GLOBALSTAR M047","OBJECT_ID":"1999-031C","EPOCH":"2026-04-05T14:57:56.400480","MEAN_MOTION":11.31933096,"ECCENTRICITY":0.001641,"INCLINATION":51.9821,"RA_OF_ASC_NODE":220.3053,"ARG_OF_PERICENTER":47.9962,"MEAN_ANOMALY":312.2239,"EPHEMERIS_TYPE":0,"CLASSIFICATION_TYPE":"U","NORAD_CAT_ID":25772,"ELEMENT_SET_NO":999,"REV_AT_EPOCH":50422,"BSTAR":0.00040942,"MEAN_MOTION_DOT":-5.5e-7,"MEAN_MOTION_DDOT":0},{"OBJECT_NAME":"GLOBALSTAR M052","OBJECT_ID":"1999-031D","EPOCH":"2026-04-05T11:52:39.959616","MEAN_MOTION":11.15063819,"ECCENTRICITY":0.00021072,"INCLINATION":51.9911,"RA_OF_ASC_NODE":356.1323,"ARG_OF_PERICENTER":308.0139,"MEAN_ANOMALY":222.7398,"EPHEMERIS_TYPE":0,"CLASSIFICATION_TYPE":"U","NORAD_CAT_ID":25773,"ELEMENT_SET_NO":999,"REV_AT_EPOCH":51111,"BSTAR":0.00071121024,"MEAN_MOTION_DOT":-4.5e-7,"MEAN_MOTION_DDOT":0},{"OBJECT_NAME":"GLOBALSTAR M035","OBJECT_ID":"1999-037A","EPOCH":"2026-04-05T19:43:34.035744","MEAN_MOTION":11.04541469,"ECCENTRICITY":0.0013553,"INCLINATION":51.9923,"RA_OF_ASC_NODE":122.3559,"ARG_OF_PERICENTER":97.49,"MEAN_ANOMALY":73.3202,"EPHEMERIS_TYPE":0,"CLASSIFICATION_TYPE":"U","NORAD_CAT_ID":25851,"ELEMENT_SET_NO":999,"REV_AT_EPOCH":12859,"BSTAR":0.00091087,"MEAN_MOTION_DOT":-4.0e-7,"MEAN_MOTION_DDOT":0},{"OBJECT_NAME":"GLOBALSTAR M032","OBJECT_ID":"1999-037B","EPOCH":"2026-04-05T18:37:26.310144","MEAN_MOTION":11.19069283,"ECCENTRICITY":0.0012007,"INCLINATION":51.9957,"RA_OF_ASC_NODE":287.4756,"ARG_OF_PERICENTER":300.7017,"MEAN_ANOMALY":59.26,"EPHEMERIS_TYPE":0,"CLASSIFICATION_TYPE":"U","NORAD_CAT_ID":25852,"ELEMENT_SET_NO":999,"REV_AT_EPOCH":16754,"BSTAR":-0.00039732,"MEAN_MOTION_DOT":-7.9e-7,"MEAN_MOTION_DDOT":0},{"OBJECT_NAME":"GLOBALSTAR M051","OBJECT_ID":"1999-037C","EPOCH":"2026-04-05T14:38:08.068704","MEAN_MOTION":11.42201268,"ECCENTRICITY":2.71e-5,"INCLINATION":51.9807,"RA_OF_ASC_NODE":55.4536,"ARG_OF_PERICENTER":105.1292,"MEAN_ANOMALY":254.9549,"EPHEMERIS_TYPE":0,"CLASSIFICATION_TYPE":"U","NORAD_CAT_ID":25853,"ELEMENT_SET_NO":999,"REV_AT_EPOCH":16580,"BSTAR":-3.9045e-5,"MEAN_MOTION_DOT":-7.4e-7,"MEAN_MOTION_DDOT":0},{"OBJECT_NAME":"GLOBALSTAR M030","OBJECT_ID":"1999-037D","EPOCH":"2026-04-05T13:41:07.890144","MEAN_MOTION":11.55108067,"ECCENTRICITY":0.0003843,"INCLINATION":51.9868,"RA_OF_ASC_NODE":203.0623,"ARG_OF_PERICENTER":192.1937,"MEAN_ANOMALY":167.8787,"EPHEMERIS_TYPE":0,"CLASSIFICATION_TYPE":"U","NORAD_CAT_ID":25854,"ELEMENT_SET_NO":999,"REV_AT_EPOCH":18383,"BSTAR":0.0018321,"MEAN_MOTION_DOT":1.1e-7,"MEAN_MOTION_DDOT":0},{"OBJECT_NAME":"GLOBALSTAR M048","OBJECT_ID":"1999-041A","EPOCH":"2026-04-05T21:20:25.509696","MEAN_MOTION":11.3386294,"ECCENTRICITY":0.0013203,"INCLINATION":51.9413,"RA_OF_ASC_NODE":1.131,"ARG_OF_PERICENTER":334.415,"MEAN_ANOMALY":103.221,"EPHEMERIS_TYPE":0,"CLASSIFICATION_TYPE":"U","NORAD_CAT_ID":25872,"ELEMENT_SET_NO":999,"REV_AT_EPOCH":15818,"BSTAR":0.0002942,"MEAN_MOTION_DOT":-5.9e-7,"MEAN_MOTION_DDOT":0},{"OBJECT_NAME":"GLOBALSTAR M026","OBJECT_ID":"1999-041B","EPOCH":"2026-04-05T15:37:23.530656","MEAN_MOTION":11.06842922,"ECCENTRICITY":0.0001818,"INCLINATION":51.9997,"RA_OF_ASC_NODE":237.6128,"ARG_OF_PERICENTER":54.4004,"MEAN_ANOMALY":318.5699,"EPHEMERIS_TYPE":0,"CLASSIFICATION_TYPE":"U","NORAD_CAT_ID":25873,"ELEMENT_SET_NO":999,"REV_AT_EPOCH":18087,"BSTAR":0.0010411,"MEAN_MOTION_DOT":-3.6e-7,"MEAN_MOTION_DDOT":0},{"OBJECT_NAME":"GLOBALSTAR M043","OBJECT_ID":"1999-041C","EPOCH":"2026-04-05T18:57:34.766208","MEAN_MOTION":11.2569967,"ECCENTRICITY":0.0013433,"INCLINATION":51.937,"RA_OF_ASC_NODE":120.6655,"ARG_OF_PERICENTER":91.7308,"MEAN_ANOMALY":79.2654,"EPHEMERIS_TYPE":0,"CLASSIFICATION_TYPE":"U","NORAD_CAT_ID":25874,"ELEMENT_SET_NO":999,"REV_AT_EPOCH":15582,"BSTAR":0.00097328,"MEAN_MOTION_DOT":-3.6e-7,"MEAN_MOTION_DDOT":0},{"OBJECT_NAME":"GLOBALSTAR M028","OBJECT_ID":"1999-041D","EPOCH":"2026-04-05T14:14:57.767424","MEAN_MOTION":12.50598518,"ECCENTRICITY":0.006357,"INCLINATION":51.9645,"RA_OF_ASC_NODE":41.1454,"ARG_OF_PERICENTER":346.9516,"MEAN_ANOMALY":12.9699,"EPHEMERIS_TYPE":0,"CLASSIFICATION_TYPE":"U","NORAD_CAT_ID":25875,"ELEMENT_SET_NO":999,"REV_AT_EPOCH":22676,"BSTAR":2.808e-5,"MEAN_MOTION_DOT":-9.6e-7,"MEAN_MOTION_DDOT":0}]
