GLOBALSTAR M045         
1 25676U 99019A   26095.52190483 -.00000143  00000+0 -43698-3 0  9990
2 25676  51.9965 192.0420 0000573 138.2640 236.5535 12.27073398229284
GLOBALSTAR M019         
1 25677U 99019B   26095.83256731 -.00000015  00000+0  78434-3 0  9997
2 25677  51.9908 342.1205 0001287 153.1500 284.4070 12.13882894220680
GLOBALSTAR M044         
1 25678U 99019C   26095.57771925 -.00000029  00000+0  75840-3 0  9999
2 25678  51.9995 330.7665 0005509 240.8565 125.7012 11.90264852206146
GLOBALSTAR M042         
1 25679U 99019D   26095.87669427 -.00000059  00000+0  31076-3 0  9992
2 25679  52.0022 304.6743 0002885 166.6170 295.1454 12.22095644221043
GLOBALSTAR M025         
1 25770U 99031A   26095.53912794 -.00000070  00000+0 -69256-4 0  9995
2 25770  51.9805 202.0132 0001929 247.7040 125.1045 11.22560700514547
GLOBALSTAR M049         
1 25771U 99031B   26095.73287046 -.00000105  00000+0 -13643-2 0  9999
2 25771  51.9863 251.0277 0003330 142.8418 217.2609 11.12123840149977
GLOBALSTAR M047         
1 25772U 99031C   26095.62356945 -.00000055  00000+0  40942-3 0  9999
2 25772  51.9821 220.3053 0016410  47.9962 312.2239 11.31933096504226
GLOBALSTAR M052         
1 25773U 99031D   26095.49490694 -.00000045  00000+0  71121-3 0  9997
2 25773  51.9911 356.1323 0002107 308.0139 222.7398 11.15063819511116
GLOBALSTAR M035         
1 25851U 99037A   26095.82192171 -.00000040  00000+0  91087-3 0  9994
2 25851  51.9923 122.3559 0013553  97.4900  73.3202 11.04541469128592
GLOBALSTAR M032         
1 25852U 99037B   26095.77599896 -.00000079  00000+0 -39732-3 0  9996
2 25852  51.9957 287.4756 0012007 300.7017  59.2600 11.19069283167542
GLOBALSTAR M051         
1 25853U 99037C   26095.60981561 -.00000074  00000+0 -39045-4 0  9996
2 25853  51.9807  55.4536 0000271 105.1292 254.9549 11.42201268165808
GLOBALSTAR M030         
1 25854U 99037D   26095.57023021  .00000011  00000+0  18321-2 0  9992
2 25854  51.9868 203.0623 0003843 192.1937 167.8787 11.55108067183830
GLOBALSTAR M048         
1 25872U 99041A   26095.88918414 -.00000059  00000+0  29420-3 0  9996
2 25872  51.9413   1.1310 0013203 334.4150 103.2210 11.33862940158183
GLOBALSTAR M026         
1 25873U 99041B   26095.65096679 -.00000036  00000+0  10411-2 0  9996
2 25873  51.9997 237.6128 0001818  54.4004 318.5699 11.06842922180871
GLOBALSTAR M043         
1 25874U 99041C   26095.78998572 -.00000036  00000+0  97328-3 0  9997
2 25874  51.9370 120.6655 0013433  91.7308  79.2654 11.25699670155820
GLOBALSTAR M028         
1 25875U 99041D   26095.59372416 -.00000096  00000+0  28080-4 0  9996
2 25875  51.9645  41.1454 0063570 346.9516  12.9699 12.50598518226766
